AURA
1 28376U 04026A   18094.18305863  .00000100  00000-0  32147-4 0  9996
2 28376  98.2038  38.6828 0000597  68.5151 291.6111 14.57110291729695
